<?xml version="1.0" encoding="UTF-8"?>
<ndm xmlns:xsi="http://www.w3.org/2001/XMLSchema-instance" xsi:noNamespaceSchemaLocation="https://sanaregistry.org/r/ndmxml_unqualified/ndmxml-2.0.0-master-2.0.xsd">
<omm id="CCSDS_OMM_VERS" version="2.0">
<header><CREATION_DATE/><ORIGINATOR/></header><body><segment><metadata><OBJECT_NAME>ORBCOMM-X</OBJECT_NAME><OBJECT_ID>1991-050C</OBJECT_ID><CENTER_NAME>EARTH</CENTER_NAME><REF_FRAME>TEME</REF_FRAME><TIME_SYSTEM>UTC</TIME_SYSTEM><MEAN_ELEMENT_THEORY>SGP4</MEAN_ELEMENT_THEORY></metadata><data><meanElements><EPOCH>2025-03-23T18:07:17.326560</EPOCH><MEAN_MOTION>14.43158882</MEAN_MOTION><ECCENTRICITY>.0004872</ECCENTRICITY><INCLINATION>98.3512</INCLINATION><RA_OF_ASC_NODE>151.0685</RA_OF_ASC_NODE><ARG_OF_PERICENTER>88.4260</ARG_OF_PERICENTER><MEAN_ANOMALY>271.7488</MEAN_ANOMALY></meanElements><tleParameters><EPHEMERIS_TYPE>0</EPHEMERIS_TYPE><CLASSIFICATION_TYPE>U</CLASSIFICATION_TYPE><NORAD_CAT_ID>21576</NORAD_CAT_ID><ELEMENT_SET_NO>999</ELEMENT_SET_NO><REV_AT_EPOCH>77001</REV_AT_EPOCH><BSTAR>.40413E-3</BSTAR><MEAN_MOTION_DOT>.1315E-4</MEAN_MOTION_DOT><MEAN_MOTION_DDOT>0</MEAN_MOTION_DDOT></tleParameters></data></segment></body></omm>
<omm id="CCSDS_OMM_VERS" version="2.0">
<header><CREATION_DATE/><ORIGINATOR/></header><body><segment><metadata><OBJECT_NAME>ORBCOMM FM01</OBJECT_NAME><OBJECT_ID>1995-017A</OBJECT_ID><CENTER_NAME>EARTH</CENTER_NAME><REF_FRAME>TEME</REF_FRAME><TIME_SYSTEM>UTC</TIME_SYSTEM><MEAN_ELEMENT_THEORY>SGP4</MEAN_ELEMENT_THEORY></metadata><data><meanElements><EPOCH>2025-03-23T20:16:23.013984</EPOCH><MEAN_MOTION>14.88568993</MEAN_MOTION><ECCENTRICITY>.0001272</ECCENTRICITY><INCLINATION>69.9634</INCLINATION><RA_OF_ASC_NODE>286.7473</RA_OF_ASC_NODE><ARG_OF_PERICENTER>166.2001</ARG_OF_PERICENTER><MEAN_ANOMALY>193.9188</MEAN_ANOMALY></meanElements><tleParameters><EPHEMERIS_TYPE>0</EPHEMERIS_TYPE><CLASSIFICATION_TYPE>U</CLASSIFICATION_TYPE><NORAD_CAT_ID>23545</NORAD_CAT_ID><ELEMENT_SET_NO>999</ELEMENT_SET_NO><REV_AT_EPOCH>60015</REV_AT_EPOCH><BSTAR>.17302E-2</BSTAR><MEAN_MOTION_DOT>.16084E-3</MEAN_MOTION_DOT><MEAN_MOTION_DDOT>0</MEAN_MOTION_DDOT></tleParameters></data></segment></body></omm>
<omm id="CCSDS_OMM_VERS" version="2.0">
<header><CREATION_DATE/><ORIGINATOR/></header><body><segment><metadata><OBJECT_NAME>ORBCOMM FM02</OBJECT_NAME><OBJECT_ID>1995-017B</OBJECT_ID><CENTER_NAME>EARTH</CENTER_NAME><REF_FRAME>TEME</REF_FRAME><TIME_SYSTEM>UTC</TIME_SYSTEM><MEAN_ELEMENT_THEORY>SGP4</MEAN_ELEMENT_THEORY></metadata><data><meanElements><EPOCH>2025-03-23T15:02:53.460096</EPOCH><MEAN_MOTION>14.89068057</MEAN_MOTION><ECCENTRICITY>.0002202</ECCENTRICITY><INCLINATION>69.9659</INCLINATION><RA_OF_ASC_NODE>306.9042</RA_OF_ASC_NODE><ARG_OF_PERICENTER>129.6462</ARG_OF_PERICENTER><MEAN_ANOMALY>230.4887</MEAN_ANOMALY></meanElements><tleParameters><EPHEMERIS_TYPE>0</EPHEMERIS_TYPE><CLASSIFICATION_TYPE>U</CLASSIFICATION_TYPE><NORAD_CAT_ID>23546</NORAD_CAT_ID><ELEMENT_SET_NO>999</ELEMENT_SET_NO><REV_AT_EPOCH>59941</REV_AT_EPOCH><BSTAR>.21848E-2</BSTAR><MEAN_MOTION_DOT>.206E-3</MEAN_MOTION_DOT><MEAN_MOTION_DDOT>0</MEAN_MOTION_DDOT></tleParameters></data></segment></body></omm>
<omm id="CCSDS_OMM_VERS" version="2.0">
<header><CREATION_DATE/><ORIGINATOR/></header><body><segment><metadata><OBJECT_NAME>ORBCOMM FM08</OBJECT_NAME><OBJECT_ID>1997-084A</OBJECT_ID><CENTER_NAME>EARTH</CENTER_NAME><REF_FRAME>TEME</REF_FRAME><TIME_SYSTEM>UTC</TIME_SYSTEM><MEAN_ELEMENT_THEORY>SGP4</MEAN_ELEMENT_THEORY></metadata><data><meanElements><EPOCH>2025-03-23T05:06:54.778464</EPOCH><MEAN_MOTION>14.45378317</MEAN_MOTION><ECCENTRICITY>.0005035</ECCENTRICITY><INCLINATION>45.0135</INCLINATION><RA_OF_ASC_NODE>60.4673</RA_OF_ASC_NODE><ARG_OF_PERICENTER>191.2948</ARG_OF_PERICENTER><MEAN_ANOMALY>168.7791</MEAN_ANOMALY></meanElements><tleParameters><EPHEMERIS_TYPE>0</EPHEMERIS_TYPE><CLASSIFICATION_TYPE>U</CLASSIFICATION_TYPE><NORAD_CAT_ID>25112</NORAD_CAT_ID><ELEMENT_SET_NO>999</ELEMENT_SET_NO><REV_AT_EPOCH>42893</REV_AT_EPOCH><BSTAR>.21008E-2</BSTAR><MEAN_MOTION_DOT>.7324E-4</MEAN_MOTION_DOT><MEAN_MOTION_DDOT>0</MEAN_MOTION_DDOT></tleParameters></data></segment></body></omm>
<omm id="CCSDS_OMM_VERS" version="2.0">
<header><CREATION_DATE/><ORIGINATOR/></header><body><segment><metadata><OBJECT_NAME>ORBCOMM FM10</OBJECT_NAME><OBJECT_ID>1997-084B</OBJECT_ID><CENTER_NAME>EARTH</CENTER_NAME><REF_FRAME>TEME</REF_FRAME><TIME_SYSTEM>UTC</TIME_SYSTEM><MEAN_ELEMENT_THEORY>SGP4</MEAN_ELEMENT_THEORY></metadata><data><meanElements><EPOCH>2025-03-23T06:01:10.060032</EPOCH><MEAN_MOTION>14.45170010</MEAN_MOTION><ECCENTRICITY>.0002488</ECCENTRICITY><INCLINATION>45.0146</INCLINATION><RA_OF_ASC_NODE>62.5184</RA_OF_ASC_NODE><ARG_OF_PERICENTER>148.8935</ARG_OF_PERICENTER><MEAN_ANOMALY>211.2063</MEAN_ANOMALY></meanElements><tleParameters><EPHEMERIS_TYPE>0</EPHEMERIS_TYPE><CLASSIFICATION_TYPE>U</CLASSIFICATION_TYPE><NORAD_CAT_ID>25113</NORAD_CAT_ID><ELEMENT_SET_NO>999</ELEMENT_SET_NO><REV_AT_EPOCH>60408</REV_AT_EPOCH><BSTAR>.18186E-2</BSTAR><MEAN_MOTION_DOT>.6291E-4</MEAN_MOTION_DOT><MEAN_MOTION_DDOT>0</MEAN_MOTION_DDOT></tleParameters></data></segment></body></omm>
<omm id="CCSDS_OMM_VERS" version="2.0">
<header><CREATION_DATE/><ORIGINATOR/></header><body><segment><metadata><OBJECT_NAME>ORBCOMM FM11</OBJECT_NAME><OBJECT_ID>1997-084C</OBJECT_ID><CENTER_NAME>EARTH</CENTER_NAME><REF_FRAME>TEME</REF_FRAME><TIME_SYSTEM>UTC</TIME_SYSTEM><MEAN_ELEMENT_THEORY>SGP4</MEAN_ELEMENT_THEORY></metadata><data><meanElements><EPOCH>2025-03-23T04:06:55.346688</EPOCH><MEAN_MOTION>14.44923148</MEAN_MOTION><ECCENTRICITY>.0003389</ECCENTRICITY><INCLINATION>45.0130</INCLINATION><RA_OF_ASC_NODE>63.3769</RA_OF_ASC_NODE><ARG_OF_PERICENTER>150.7641</ARG_OF_PERICENTER><MEAN_ANOMALY>209.3400</MEAN_ANOMALY></meanElements><tleParameters><EPHEMERIS_TYPE>0</EPHEMERIS_TYPE><CLASSIFICATION_TYPE>U</CLASSIFICATION_TYPE><NORAD_CAT_ID>25114</NORAD_CAT_ID><ELEMENT_SET_NO>999</ELEMENT_SET_NO><REV_AT_EPOCH>42903</REV_AT_EPOCH><BSTAR>.17915E-2</BSTAR><MEAN_MOTION_DOT>.6163E-4</MEAN_MOTION_DOT><MEAN_MOTION_DDOT>0</MEAN_MOTION_DDOT></tleParameters></data></segment></body></omm>
<omm id="CCSDS_OMM_VERS" version="2.0">
<header><CREATION_DATE/><ORIGINATOR/></header><body><segment><metadata><OBJECT_NAME>ORBCOMM FM12</OBJECT_NAME><OBJECT_ID>1997-084D</OBJECT_ID><CENTER_NAME>EARTH</CENTER_NAME><REF_FRAME>TEME</REF_FRAME><TIME_SYSTEM>UTC</TIME_SYSTEM><MEAN_ELEMENT_THEORY>SGP4</MEAN_ELEMENT_THEORY></metadata><data><meanElements><EPOCH>2025-03-23T06:33:55.196064</EPOCH><MEAN_MOTION>14.44947944</MEAN_MOTION><ECCENTRICITY>.0002328</ECCENTRICITY><INCLINATION>45.0138</INCLINATION><RA_OF_ASC_NODE>62.6471</RA_OF_ASC_NODE><ARG_OF_PERICENTER>151.0973</ARG_OF_PERICENTER><MEAN_ANOMALY>209.0008</MEAN_ANOMALY></meanElements><tleParameters><EPHEMERIS_TYPE>0</EPHEMERIS_TYPE><CLASSIFICATION_TYPE>U</CLASSIFICATION_TYPE><NORAD_CAT_ID>25115</NORAD_CAT_ID><ELEMENT_SET_NO>999</ELEMENT_SET_NO><REV_AT_EPOCH>42884</REV_AT_EPOCH><BSTAR>.1859E-2</BSTAR><MEAN_MOTION_DOT>.6404E-4</MEAN_MOTION_DOT><MEAN_MOTION_DDOT>0</MEAN_MOTION_DDOT></tleParameters></data></segment></body></omm>
<omm id="CCSDS_OMM_VERS" version="2.0">
<header><CREATION_DATE/><ORIGINATOR/></header><body><segment><metadata><OBJECT_NAME>ORBCOMM FM09</OBJECT_NAME><OBJECT_ID>1997-084E</OBJECT_ID><CENTER_NAME>EARTH</CENTER_NAME><REF_FRAME>TEME</REF_FRAME><TIME_SYSTEM>UTC</TIME_SYSTEM><MEAN_ELEMENT_THEORY>SGP4</MEAN_ELEMENT_THEORY></metadata><data><meanElements><EPOCH>2025-03-23T15:28:02.741952</EPOCH><MEAN_MOTION>14.44842843</MEAN_MOTION><ECCENTRICITY>.0003602</ECCENTRICITY><INCLINATION>45.0143</INCLINATION><RA_OF_ASC_NODE>61.7200</RA_OF_ASC_NODE><ARG_OF_PERICENTER>128.7037</ARG_OF_PERICENTER><MEAN_ANOMALY>231.4137</MEAN_ANOMALY></meanElements><tleParameters><EPHEMERIS_TYPE>0</EPHEMERIS_TYPE><CLASSIFICATION_TYPE>U</CLASSIFICATION_TYPE><NORAD_CAT_ID>25116</NORAD_CAT_ID><ELEMENT_SET_NO>999</ELEMENT_SET_NO><REV_AT_EPOCH>42913</REV_AT_EPOCH><BSTAR>.17515E-2</BSTAR><MEAN_MOTION_DOT>.6011E-4</MEAN_MOTION_DOT><MEAN_MOTION_DDOT>0</MEAN_MOTION_DDOT></tleParameters></data></segment></body></omm>

</ndm>
