ORBCOMM-X               
1 21576U 91050C   25082.75506165  .00001315  00000+0  40413-3 0  9992
2 21576  98.3512 151.0685 0004872  88.4260 271.7488 14.43158882770012
ORBCOMM FM01            
1 23545U 95017A   25082.84471081  .00016084  00000+0  17302-2 0  9994
2 23545  69.9634 286.7473 0001272 166.2001 193.9188 14.88568993600155
ORBCOMM FM02            
1 23546U 95017B   25082.62700764  .00020600  00000+0  21848-2 0  9993
2 23546  69.9659 306.9042 0002202 129.6462 230.4887 14.89068057599414
ORBCOMM FM08            
1 25112U 97084A   25082.21313401  .00007324  00000+0  21008-2 0  9999
2 25112  45.0135  60.4673 0005035 191.2948 168.7791 14.45378317428932
ORBCOMM FM10            
1 25113U 97084B   25082.25081088  .00006291  00000+0  18186-2 0  9992
2 25113  45.0146  62.5184 0002488 148.8935 211.2063 14.45170010604086
ORBCOMM FM11            
1 25114U 97084C   25082.17147392  .00006163  00000+0  17915-2 0  9992
2 25114  45.0130  63.3769 0003389 150.7641 209.3400 14.44923148429035
ORBCOMM FM12            
1 25115U 97084D   25082.27355551  .00006404  00000+0  18590-2 0  9990
2 25115  45.0138  62.6471 0002328 151.0973 209.0008 14.44947944428849
ORBCOMM FM09            
1 25116U 97084E   25082.64447618  .00006011  00000+0  17515-2 0  9998
2 25116  45.0143  61.7200 0003602 128.7037 231.4137 14.44842843429131
